FGN-100-D2              
1 66299U 25248G   26068.00382769  .00006346  00000+0  30466-3 0  9990
2 66299  45.4006 298.0063 0005270 203.9196 156.1446 15.19697424 19279
FLOCK 4H-34             
1 66737U 25276BZ  26068.18019223  .00007553  00000+0  36112-3 0  9994
2 66737  97.4305 143.5834 0001019 313.8618  46.2533 15.19283670 14491
